STARLINK-30540          
1 58002U 23153M   26202.82801952  .00000629  00000+0  32397-4 0  9990
2 58002  43.0038  29.2791 0001184 274.4149  85.6567 15.27575856155313
STARLINK-30539          
1 58004U 23153P   26202.49850370 -.00000096  00000+0  60420-5 0  9991
2 58004  43.0057  31.1232 0001372 267.4650  92.6044 15.27586850155354
STARLINK-30530          
1 58005U 23153Q   26202.50621272  .00000815  00000+0  39153-4 0  9997
2 58005  43.0056  31.1732 0001446 259.4185 100.6504 15.27583185155365
STARLINK-30526          
1 58006U 23153R   26202.75109451  .00028478  00000+0  90917-3 0  9994
2 58006  43.0048   2.6889 0007230 291.5555  68.4527 15.31934314155712
STARLINK-30527          
1 58007U 23153S   26203.28104367  .00000843  00000+0  40157-4 0  9993
2 58007  43.0033 158.2803 0001452 270.1578  89.9108 15.27581851158040
STARLINK-30522          
1 58008U 23153T   26202.86784433 -.00000525  00000+0 -95507-5 0  9994
2 58008  43.0024  29.5789 0001148 267.8047  92.2674 15.27575102155415
STARLINK-30486          
1 58009U 23153U   26202.56774717  .00000544  00000+0  29312-4 0  9995
2 58009  43.0053  30.7717 0001500 263.8050  96.2631 15.27578664155272
STARLINK-30520          
1 58010U 23153V   26202.57802380  .00001384  00000+0  59819-4 0  9994
2 58010  43.0068  30.8381 0001578 259.0520 101.0155 15.27583126155277
STARLINK-30497          
1 58011U 23153W   26202.82030517 -.00000384  00000+0 -44066-5 0  9998
2 58011  43.0062  29.2235 0002119 274.3446  85.7164 15.27572351155413
STARLINK-30525          
1 58012U 23153X   26202.57032080  .00000499  00000+0  27664-4 0  9997
2 58012  43.0044  30.7832 0001109 266.6007  93.4718 15.27579702155372
STARLINK-30514          
1 58028U 23156A   26203.19442247  .00009637  00000+0  30386-3 0  9993
2 58028  53.1602 173.3048 0001344  94.4889 265.6267 15.33562534156915
STARLINK-30518          
1 58029U 23156B   26203.25002315  .00063187  00000+0  18702-2 0  9996
2 58029  53.1592 173.2214 0001471  82.6317 139.4021 15.34321439  5865
STARLINK-30549          
1 58030U 23156C   26203.17446166 -.00000621  00000+0 -88466-5 0  9998
2 58030  53.1599 173.7104 0001475  93.8919 266.2251 15.30201027156859
STARLINK-30556          
1 58031U 23156D   26203.17366846  .00000829  00000+0  35674-4 0  9995
2 58031  53.1594 181.4000 0001337  92.4422 267.6734 15.34391313156782
STARLINK-30561          
1 58032U 23156E   26203.15312990  .00000317  00000+0  20529-4 0  9990
2 58032  53.1616 173.5804 0001486  84.1892 275.9280 15.34393779156906
STARLINK-30562          
1 58033U 23156F   26202.36822836 -.00000270  00000+0  29897-5 0  9995
2 58033  53.1582 266.9704 0001011  87.0715 273.0401 15.30188808155505
STARLINK-30565          
1 58034U 23156G   26203.14682184  .00000414  00000+0  23394-4 0  9997
2 58034  53.1631 173.5466 0001672  88.0418 272.0776 15.34390329156909
STARLINK-30438          
1 58035U 23156H   26203.13334877  .00000695  00000+0  35602-4 0  9996
2 58035  53.1602 173.6283 0001118  78.8975 281.2151 15.30188724156859
STARLINK-30437          
1 58036U 23156J   26203.14177470  .00000116  00000+0  16028-4 0  9991
2 58036  53.1592 173.6787 0001205  88.8855 271.2284 15.30197805156858
STARLINK-30533          
1 58037U 23156K   26202.43994591  .00021640  00000+0  64914-3 0  9995
2 58037  53.1578 265.2785 0001295  96.2298 263.8852 15.34429100155534
STARLINK-30560          
1 58038U 23156L   26203.28865003  .00004005  00000+0  14725-3 0  9996
2 58038  53.1604 170.3316 0001457  71.4537 288.6622 15.30207258156919
STARLINK-30555          
1 58040U 23156N   26202.59959350 -.00000764  00000+0 -11477-4 0  9993
2 58040  53.1605 264.1602 0001027  73.7175 286.3940 15.34401281155563
STARLINK-30542          
1 58041U 23156P   26203.25002315  .00017115  00000+0  51691-3 0  9995
2 58041  53.1607 173.0145 0001488  76.0878 331.8743 15.34375375  5782
STARLINK-30563          
1 58042U 23156Q   26203.19281489 -.00000633  00000+0 -92595-5 0  9999
2 58042  53.1593 171.0001 0001181  93.4110 266.7026 15.30195583156940
STARLINK-30564          
1 58043U 23156R   26203.25002315  .00016066  00000+0  49886-3 0  9994
2 58043  53.1597 173.4262 0001102  69.0792 315.9264 15.33544252  5878
STARLINK-30547          
1 58044U 23156S   26202.55128051  .00000565  00000+0  27860-4 0  9999
2 58044  53.1607 264.5229 0001254  84.6572 275.4574 15.34391473155554
STARLINK-30550          
1 58045U 23156T   26202.13085577  .00001649  00000+0  59935-4 0  9991
2 58045  53.1605 100.2866 0001494 108.6764 251.4401 15.34405815157823
STARLINK-30548          
1 58046U 23156U   26201.42083096  .00001970  00000+0  69436-4 0  9991
2 58046  53.1595 269.6059 0001093  87.4472 272.6655 15.34390760155333
STARLINK-30529          
1 58047U 23156V   26202.32906794 -.00041641  00000+0 -12323-2 0  9993
2 58047  53.1606 267.4262 0001162  68.0283 292.0843 15.34292777155447
STARLINK-30554          
1 58048U 23156W   26203.25002315 -.00013088  00000+0 -38756-3 0  9996
2 58048  53.1599 262.9988 0001326 101.5526  18.7540 15.33526985  5866
