OBJECT_NAME,OBJECT_ID,EPOCH,MEAN_MOTION,ECCENTRICITY,INCLINATION,RA_OF_ASC_NODE,ARG_OF_PERICENTER,MEAN_ANOMALY,EPHEMERIS_TYPE,CLASSIFICATION_TYPE,NORAD_CAT_ID,ELEMENT_SET_NO,REV_AT_EPOCH,BSTAR,MEAN_MOTION_DOT,MEAN_MOTION_DDOT
STARLINK-30540,2023-153M,2026-07-21T19:52:20.886528,15.27575856,.00011846,43.0038,29.2791,274.4149,85.6567,0,U,58002,999,15531,.32396805E-4,.629E-5,0
STARLINK-30539,2023-153P,2026-07-21T11:57:50.719680,15.27586850,.00013725,43.0057,31.1232,267.4650,92.6044,0,U,58004,999,15535,.6041975E-5,-.96E-6,0
STARLINK-30530,2023-153Q,2026-07-21T12:08:56.779008,15.27583185,.00014468,43.0056,31.1732,259.4185,100.6504,0,U,58005,999,15536,.39152946E-4,.815E-5,0
STARLINK-30526,2023-153R,2026-07-21T18:01:34.565664,15.31934314,.00072302,43.0048,2.6889,291.5555,68.4527,0,U,58006,999,15571,.9091684E-3,.28478E-3,0
STARLINK-30527,2023-153S,2026-07-22T06:44:42.173088,15.27581851,.00014529,43.0033,158.2803,270.1578,89.9108,0,U,58007,999,15804,.40157246E-4,.843E-5,0
STARLINK-30522,2023-153T,2026-07-21T20:49:41.750112,15.27575102,.00011489,43.0024,29.5789,267.8047,92.2674,0,U,58008,999,15541,-.9550747E-5,-.525E-5,0
STARLINK-30486,2023-153U,2026-07-21T13:37:33.355488,15.27578664,.00015003,43.0053,30.7717,263.8050,96.2631,0,U,58009,999,15527,.29312351E-4,.544E-5,0
STARLINK-30520,2023-153V,2026-07-21T13:52:21.256320,15.27583126,.0001578,43.0068,30.8381,259.0520,101.0155,0,U,58010,999,15527,.59818766E-4,.1384E-4,0
STARLINK-30497,2023-153W,2026-07-21T19:41:14.366688,15.27572351,.0002119,43.0062,29.2235,274.3446,85.7164,0,U,58011,999,15541,-.440655E-5,-.384E-5,0
STARLINK-30525,2023-153X,2026-07-21T13:41:15.717120,15.27579702,.00011092,43.0044,30.7832,266.6007,93.4718,0,U,58012,999,15537,.27664024E-4,.499E-5,0
STARLINK-30514,2023-156A,2026-07-22T04:39:58.101408,15.33562534,.00013446,53.1602,173.3048,94.4889,265.6267,0,U,58028,999,15691,.30385525E-3,.9637E-4,0
STARLINK-30518,2023-156B,2026-07-22T06:00:02.000160,15.34321439,.00014715,53.1592,173.2214,82.6317,139.4021,0,U,58029,999,586,.18702005E-2,.63187E-3,0
STARLINK-30549,2023-156C,2026-07-22T04:11:13.487424,15.30201027,.00014754,53.1599,173.7104,93.8919,266.2251,0,U,58030,999,15685,-.884656E-5,-.621E-5,0
STARLINK-30556,2023-156D,2026-07-22T04:10:04.954944,15.34391313,.00013372,53.1594,181.4000,92.4422,267.6734,0,U,58031,999,15678,.35674309E-4,.829E-5,0
STARLINK-30561,2023-156E,2026-07-22T03:40:30.423360,15.34393779,.00014869,53.1616,173.5804,84.1892,275.9280,0,U,58032,999,15690,.20528747E-4,.317E-5,0
STARLINK-30562,2023-156F,2026-07-21T08:50:14.930304,15.30188808,.00010118,53.1582,266.9704,87.0715,273.0401,0,U,58033,999,15550,.2989723E-5,-.27E-5,0
STARLINK-30565,2023-156G,2026-07-22T03:31:25.406976,15.34390329,.00016727,53.1631,173.5466,88.0418,272.0776,0,U,58034,999,15690,.23394422E-4,.414E-5,0
STARLINK-30438,2023-156H,2026-07-22T03:12:01.333728,15.30188724,.00011186,53.1602,173.6283,78.8975,281.2151,0,U,58035,999,15685,.35602323E-4,.695E-5,0
STARLINK-30437,2023-156J,2026-07-22T03:24:09.334080,15.30197805,.00012054,53.1592,173.6787,88.8855,271.2284,0,U,58036,999,15685,.16028246E-4,.116E-5,0
STARLINK-30533,2023-156K,2026-07-21T10:33:31.326624,15.34429100,.00012955,53.1578,265.2785,96.2298,263.8852,0,U,58037,999,15553,.64914163E-3,.2164E-3,0
STARLINK-30560,2023-156L,2026-07-22T06:55:39.362592,15.30207258,.00014573,53.1604,170.3316,71.4537,288.6622,0,U,58038,999,15691,.14724512E-3,.4005E-4,0
STARLINK-30555,2023-156N,2026-07-21T14:23:24.878400,15.34401281,.0001027,53.1605,264.1602,73.7175,286.3940,0,U,58040,999,15556,-.11477063E-4,-.764E-5,0
STARLINK-30542,2023-156P,2026-07-22T06:00:02.000160,15.34375375,.00014889,53.1607,173.0145,76.0878,331.8743,0,U,58041,999,578,.5169109E-3,.17115E-3,0
STARLINK-30563,2023-156Q,2026-07-22T04:37:39.206496,15.30195583,.00011816,53.1593,171.0001,93.4110,266.7026,0,U,58042,999,15694,-.9259523E-5,-.633E-5,0
STARLINK-30564,2023-156R,2026-07-22T06:00:02.000160,15.33544252,.00011027,53.1597,173.4262,69.0792,315.9264,0,U,58043,999,587,.4988607E-3,.16066E-3,0
STARLINK-30547,2023-156S,2026-07-21T13:13:50.636064,15.34391473,.0001254,53.1607,264.5229,84.6572,275.4574,0,U,58044,999,15555,.27860065E-4,.565E-5,0
STARLINK-30550,2023-156T,2026-07-21T03:08:25.938528,15.34405815,.00014942,53.1605,100.2866,108.6764,251.4401,0,U,58045,999,15782,.59934683E-4,.1649E-4,0
STARLINK-30548,2023-156U,2026-07-20T10:05:59.794944,15.34390760,.0001093,53.1595,269.6059,87.4472,272.6655,0,U,58046,999,15533,.69436303E-4,.197E-4,0
STARLINK-30529,2023-156V,2026-07-21T07:53:51.470016,15.34292777,.00011626,53.1606,267.4262,68.0283,292.0843,0,U,58047,999,15544,-.12323004E-2,-.41641E-3,0
STARLINK-30554,2023-156W,2026-07-22T06:00:02.000160,15.33526985,.00013266,53.1599,262.9988,101.5526,18.7540,0,U,58048,999,586,-.3875574E-3,-.13088E-3,0
